NORAD_CAT_ID,OBJECT_NAME,OBJECT_TYPE,EPOCH,MEAN_MOTION,ECCENTRICITY,INCLINATION,RA_OF_ASC_NODE,ARG_OF_PERICENTER,MEAN_ANOMALY,BSTAR,MEAN_MOTION_DOT,MEAN_MOTION_DDOT,TLE_LINE0,TLE_LINE1,TLE_LINE2,SEMIMAJOR_AXIS,PERIOD,APOGEE,PERIGEE,DECAYED
49417.0,STARLINK-3154,PAYLOAD,2024-01-18 13:34:38,15.08839192,0.0001793,53.2182,125.3777,103.2971,256.8222,0.00024982,3.69e-05,0.0,0 STARLINK-3154,1 49417U 21104K   24018.56572298  .00003690  00000-0  24982-3 0  9998,2 49417  53.2182 125.3777 0001793 103.2971 256.8222 15.08839192120841,6917.883,95.438,540.988,538.507,0.0
49417.0,STARLINK-3154,PAYLOAD,2024-01-19 13:25:24,15.08857344,0.0001687,53.2179,120.9181,101.3387,258.7794,1.8432e-05,5e-08,0.0,0 STARLINK-3154,1 49417U 21104K   24019.55931416  .00000005  00000-0  18432-4 0  9990,2 49417  53.2179 120.9181 0001687 101.3387 258.7794 15.08857344120999,6917.827,95.436,540.859,538.525,0.0
49417.0,STARLINK-3154,PAYLOAD,2024-01-20 11:40:49,15.08841249,0.0001595,53.2182,116.7563,96.9745,263.1429,-5.6468e-06,-3.78e-06,0.0,0 STARLINK-3154,1 49417U 21104K   24020.48668377 -.00000378  00000-0 -56468-5 0  9994,2 49417  53.2182 116.7563 0001595  96.9745 263.1429 15.08841249122247,6917.877,95.437,540.845,538.638,0.0
49417.0,STARLINK-3154,PAYLOAD,2024-01-20 13:16:12,15.08842197,0.0001656,53.2185,116.4587,100.6594,259.4585,5.1762e-06,-2.06e-06,0.0,0 STARLINK-3154,1 49417U 21104K   24020.55292270 -.00000206  00000-0  51762-5 0  9998,2 49417  53.2185 116.4587 0001656 100.6594 259.4585 15.08842197121148,6917.874,95.437,540.884,538.593,0.0
49417.0,STARLINK-3154,PAYLOAD,2024-01-21 06:45:27,15.0883942,0.0001603,53.2182,113.1863,105.3393,254.7777,-5.6074e-06,-3.77e-06,0.0,0 STARLINK-3154,1 49417U 21104K   24021.28156474 -.00000377  00000-0 -56074-5 0  9995,2 49417  53.2182 113.1863 0001603 105.3393 254.7777 15.08839420121255,6917.882,95.438,540.856,538.638,0.0
49417.0,STARLINK-3154,PAYLOAD,2024-01-21 11:31:36,15.08845278,0.0001604,53.2182,112.294,102.0258,258.0914,3.7942e-05,3.16e-06,0.0,0 STARLINK-3154,1 49417U 21104K   24021.48028006  .00000316  00000-0  37942-4 0  9999,2 49417  53.2182 112.2940 0001604 102.0258 258.0914 15.08845278121287,6917.864,95.437,540.839,538.62,0.0
49417.0,STARLINK-3154,PAYLOAD,2024-01-22 11:22:23,15.08838034,0.0001532,53.2179,107.8335,102.9181,257.1983,7.7104e-05,9.39e-06,0.0,0 STARLINK-3154,1 49417U 21104K   24022.47388518  .00000939  00000-0  77104-4 0  9991,2 49417  53.2179 107.8335 0001532 102.9181 257.1983 15.08838034122543,6917.886,95.438,540.811,538.692,0.0
49417.0,STARLINK-3154,PAYLOAD,2024-01-22 12:57:46,15.08838927,0.000136,53.2174,107.5368,81.6387,278.4759,9.5711e-05,1.236e-05,0.0,0 STARLINK-3154,1 49417U 21104K   24022.54012521  .00001236  00000-0  95711-4 0  9992,2 49417  53.2174 107.5368 0001360  81.6387 278.4759 15.08838927121447,6917.884,95.438,540.69,538.808,0.0
49417.0,STARLINK-3154,PAYLOAD,2024-01-23 12:48:33,15.08848095,0.0001809,53.2185,103.0757,61.4086,298.7088,0.00011932,1.612e-05,0.0,0 STARLINK-3154,1 49417U 21104K   24023.53372238  .00001612  00000-0  11932-3 0  9996,2 49417  53.2185 103.0757 0001809  61.4086 298.7088 15.08848095122709,6917.856,95.437,540.972,538.469,0.0
49417.0,STARLINK-3154,PAYLOAD,2024-01-24 11:03:58,15.08838486,0.000176,53.2178,98.9132,65.613,294.5046,6.0979e-05,6.82e-06,0.0,0 STARLINK-3154,1 49417U 21104K   24024.46109121  .00000682  00000-0  60979-4 0  9990,2 49417  53.2178  98.9132 0001760  65.6130 294.5046 15.08838486122848,6917.885,95.438,540.968,538.532,0.0
49417.0,STARLINK-3154,PAYLOAD,2024-01-24 12:39:21,15.08840626,0.0001784,53.2183,98.6165,66.8212,293.2968,8.1921e-05,1.016e-05,0.0,0 STARLINK-3154,1 49417U 21104K   24024.52732988  .00001016  00000-0  81921-4 0  9992,2 49417  53.2183  98.6165 0001784  66.8212 293.2968 15.08840626121743,6917.878,95.438,540.978,538.509,0.0
49417.0,STARLINK-3154,PAYLOAD,2024-01-25 10:54:45,15.08846258,0.0001887,53.2183,94.4535,67.3621,292.757,-2.5305e-06,-3.28e-06,0.0,0 STARLINK-3154,1 49417U 21104K   24025.45469032 -.00000328  00000-0 -25305-5 0  9994,2 49417  53.2183  94.4535 0001887  67.3621 292.7570 15.08846258121887,6917.861,95.437,541.032,538.421,0.0
49417.0,STARLINK-3154,PAYLOAD,2024-01-26 10:45:31,15.08848328,0.0001591,53.2172,89.9941,88.1545,271.963,0.00016027,2.264e-05,0.0,0 STARLINK-3154,1 49417U 21104K   24026.44828296  .00002264  00000-0  16027-3 0  9993,2 49417  53.2172  89.9941 0001591  88.1545 271.9630 15.08848328123140,6917.855,95.437,540.821,538.619,0.0
49417.0,STARLINK-3154,PAYLOAD,2024-01-27 09:00:56,15.08842295,0.000192,53.2189,85.8247,118.9085,241.21,4.7679e-07,-2.81e-06,0.0,0 STARLINK-3154,1 49417U 21104K   24027.37564859 -.00000281  00000-0  47679-6 0  9996,2 49417  53.2189  85.8247 0001920 118.9085 241.2100 15.08842295123283,6917.873,95.437,541.067,538.41,0.0
49417.0,STARLINK-3154,PAYLOAD,2024-01-27 13:47:05,15.08840973,0.0001986,53.2185,84.9328,123.805,236.3132,-7.0422e-06,-4e-06,0.0,0 STARLINK-3154,1 49417U 21104K   24027.57436903 -.00000400  00000-0 -70422-5 0  9991,2 49417  53.2185  84.9328 0001986 123.8050 236.3132 15.08840973122200,6917.877,95.437,541.116,538.369,0.0
49417.0,STARLINK-3154,PAYLOAD,2024-01-28 04:05:34,15.0883718,0.0001654,53.2169,82.2548,108.7606,251.3566,-5.7201e-05,-1.198e-05,0.0,0 STARLINK-3154,1 49417U 21104K   24028.17053485 -.00001198  00000-0 -57201-4 0  9992,2 49417  53.2169  82.2548 0001654 108.7606 251.3566 15.08837180123405,6917.889,95.438,540.898,538.61,0.0
49417.0,STARLINK-3154,PAYLOAD,2024-01-28 10:27:06,15.08838999,0.0001626,53.2173,81.0659,106.0425,254.0747,-3.0103e-05,-7.67e-06,0.0,0 STARLINK-3154,1 49417U 21104K   24028.43549342 -.00000767  00000-0 -30103-4 0  9996,2 49417  53.2173  81.0659 0001626 106.0425 254.0747 15.08838999122330,6917.883,95.438,540.873,538.624,0.0
49417.0,STARLINK-3154,PAYLOAD,2024-01-29 08:42:30,15.08839229,0.000163,53.2172,76.9021,105.6596,254.4576,0.00013025,1.785e-05,0.0,0 STARLINK-3154,1 49417U 21104K   24029.36285058  .00001785  00000-0  13025-3 0  9992,2 49417  53.2172  76.9021 0001630 105.6596 254.4576 15.08839229123583,6917.883,95.438,540.875,538.62,0.0
49417.0,STARLINK-3154,PAYLOAD,2024-01-30 11:44:04,15.08834343,0.0001476,53.2171,71.8534,91.0635,269.0527,0.00013125,1.801e-05,0.0,0 STARLINK-3154,1 49417U 21104K   24030.48893815  .00001801  00000-0  13125-3 0  9993,2 49417  53.2171  71.8534 0001476  91.0635 269.0527 15.08834343123754,6917.898,95.438,540.784,538.742,0.0
49417.0,STARLINK-3154,PAYLOAD,2024-01-31 09:59:27,15.08850398,0.0001855,53.2174,67.6867,84.6768,275.4436,-1.6173e-06,-3.14e-06,0.0,0 STARLINK-3154,1 49417U 21104K   24031.41629211 -.00000314  00000-0 -16173-5 0  9992,2 49417  53.2174  67.6867 0001855  84.6768 275.4436 15.08850398123898,6917.849,95.437,540.997,538.43,0.0
49417.0,STARLINK-3154,PAYLOAD,2024-02-01 08:14:52,15.0883862,0.0001876,53.2179,63.5215,70.2816,289.8379,5.4212e-05,5.75e-06,0.0,0 STARLINK-3154,1 49417U 21104K   24032.34365842  .00000575  00000-0  54212-4 0  9994,2 49417  53.2179  63.5215 0001876  70.2816 289.8379 15.08838620124039,6917.885,95.438,541.047,538.452,0.0
49417.0,STARLINK-3154,PAYLOAD,2024-02-02 11:16:25,15.08842762,0.0002083,53.2186,58.4659,66.945,293.1762,3.6063e-05,2.86e-06,0.0,0 STARLINK-3154,1 49417U 21104K   24033.46973688  .00000286  00000-0  36063-4 0  9994,2 49417  53.2186  58.4659 0002083  66.9450 293.1762 15.08842762124204,6917.872,95.437,541.178,538.296,0.0
49417.0,STARLINK-3154,PAYLOAD,2024-02-03 07:56:25,15.08841321,0.0001677,53.217,54.6002,101.9431,258.1749,5.4654e-05,5.82e-06,0.0,0 STARLINK-3154,1 49417U 21104K   24034.33085443  .00000582  00000-0  54654-4 0  9999,2 49417  53.2170  54.6002 0001677 101.9431 258.1749 15.08841321123221,6917.876,95.437,540.901,538.581,0.0
49417.0,STARLINK-3154,PAYLOAD,2024-02-04 10:57:59,15.08840888,0.0001802,53.2175,49.5447,111.7136,248.4048,5.3256e-05,5.6e-06,0.0,0 STARLINK-3154,1 49417U 21104K   24035.45693492  .00000560  00000-0  53256-4 0  9995,2 49417  53.2175  49.5447 0001802 111.7136 248.4048 15.08840888124506,6917.878,95.437,540.989,538.496,0.0
49417.0,STARLINK-3154,PAYLOAD,2024-02-05 04:27:14,15.0882824,0.0001973,53.2177,46.2702,111.0207,249.0997,7.6155e-05,9.24e-06,0.0,0 STARLINK-3154,1 49417U 21104K   24036.18558381  .00000924  00000-0  76155-4 0  9990,2 49417  53.2177  46.2702 0001973 111.0207 249.0997 15.08828240124617,6917.916,95.438,541.146,538.416,0.0
49417.0,STARLINK-3154,PAYLOAD,2024-02-05 07:38:00,15.08834124,0.000161,53.218,45.6842,98.136,261.9814,1.5319e-05,-4.4e-07,0.0,0 STARLINK-3154,1 49417U 21104K   24036.31806384 -.00000044  00000-0  15319-4 0  9993,2 49417  53.2180  45.6842 0001610  98.1360 261.9814 15.08834124123520,6917.898,95.438,540.877,538.65,0.0
49417.0,STARLINK-3154,PAYLOAD,2024-02-06 04:18:01,15.0884244,0.0001552,53.2181,41.8195,101.4977,258.619,4.2587e-05,3.9e-06,0.0,0 STARLINK-3154,1 49417U 21104K   24037.17918022  .00000390  00000-0  42587-4 0  9991,2 49417  53.2181  41.8195 0001552 101.4977 258.6190 15.08842440124764,6917.873,95.437,540.812,538.664,0.0
49417.0,STARLINK-3154,PAYLOAD,2024-02-06 05:53:24,15.08844985,0.0001547,53.2179,41.5224,101.2639,258.8527,6.1192e-05,6.86e-06,0.0,0 STARLINK-3154,1 49417U 21104K   24037.24541838  .00000686  00000-0  61192-4 0  9997,2 49417  53.2179  41.5224 0001547 101.2639 258.8527 15.08844985123668,6917.865,95.437,540.8,538.66,0.0
49417.0,STARLINK-3154,PAYLOAD,2024-02-07 07:19:34,15.08839135,0.0001463,53.2175,36.7628,99.6054,260.5104,8.9644e-05,1.139e-05,0.0,0 STARLINK-3154,1 49417U 21104K   24038.30526313  .00001139  00000-0  89644-4 0  9992,2 49417  53.2175  36.7628 0001463  99.6054 260.5104 15.08839135124939,6917.883,95.438,540.76,538.736,0.0
49417.0,STARLINK-3154,PAYLOAD,2024-02-07 16:51:53,15.08838084,0.0001448,53.2177,34.9787,91.2285,268.8873,5.0698e-05,5.19e-06,0.0,0 STARLINK-3154,1 49417U 21104K   24038.70270560  .00000519  00000-0  50698-4 0  9994,2 49417  53.2177  34.9787 0001448  91.2285 268.8873 15.08838084123883,6917.886,95.438,540.753,538.75,0.0
